{
  "type": "FeatureCollection",
  "features": [
    {
      "type": "Feature",
      "properties": {
        "norad_id": 67032,
        "name": "STARLINK-36131",
        "group": "last-30-days",
        "lat": -16.771821826473037,
        "lon": -65.29253593297909,
        "alt_km": 377.15088297374405,
        "timestamp": "2025-12-26T21:25:51.736507+00:00",
        "meta_object_name": "STARLINK-36131",
        "meta_object_id": "2025-294C",
        "meta_epoch": "2025-12-26T14:00:04.000032",
        "meta_mean_motion": 15.65469593,
        "meta_eccentricity": 0.00012989,
        "meta_inclination": 42.9993,
        "meta_ra_of_asc_node": 97.687,
        "meta_arg_of_pericenter": 274.0096,
        "meta_mean_anomaly": 344.8978,
        "meta_ephemeris_type": 0,
        "meta_classification_type": "U",
        "meta_norad_cat_id": 67032,
        "meta_element_set_no": 999,
        "meta_rev_at_epoch": 233,
        "meta_bstar": -0.021362806,
        "meta_mean_motion_dot": -0.01942277,
        "meta_mean_motion_ddot": 0,
        "tle_line1": "1 67032U 25294C   25360.58337963 -.01942277  00000+0 -21363-1 0  9999",
        "tle_line2": "2 67032  42.9993  97.6870 0001298 274.0096 344.8978 15.65469593  2335"
      },
      "geometry": {
        "type": "Point",
        "coordinates": [
          -65.29253593297909,
          -16.771821826473037
        ]
      }
    },
    {
      "type": "Feature",
      "properties": {
        "norad_id": 67033,
        "name": "STARLINK-36137",
        "group": "last-30-days",
        "lat": -15.47000593470604,
        "lon": -66.87980933530734,
        "alt_km": 377.15048783738985,
        "timestamp": "2025-12-26T21:25:51.736518+00:00",
        "meta_object_name": "STARLINK-36137",
        "meta_object_id": "2025-294D",
        "meta_epoch": "2025-12-26T14:00:04.000032",
        "meta_mean_motion": 15.65477395,
        "meta_eccentricity": 0.00012818,
        "meta_inclination": 42.9994,
        "meta_ra_of_asc_node": 97.6923,
        "meta_arg_of_pericenter": 279.1604,
        "meta_mean_anomaly": 337.7295,
        "meta_ephemeris_type": 0,
        "meta_classification_type": "U",
        "meta_norad_cat_id": 67033,
        "meta_element_set_no": 999,
        "meta_rev_at_epoch": 233,
        "meta_bstar": -0.021377337,
        "meta_mean_motion_dot": -0.01943972,
        "meta_mean_motion_ddot": 0,
        "tle_line1": "1 67033U 25294D   25360.58337963 -.01943972  00000+0 -21377-1 0  9998",
        "tle_line2": "2 67033  42.9994  97.6923 0001281 279.1604 337.7295 15.65477395  2331"
      },
      "geometry": {
        "type": "Point",
        "coordinates": [
          -66.87980933530734,
          -15.47000593470604
        ]
      }
    },
    {
      "type": "Feature",
      "properties": {
        "norad_id": 67034,
        "name": "STARLINK-36140",
        "group": "last-30-days",
        "lat": -18.101108717466406,
        "lon": -63.632800675260434,
        "alt_km": 377.32665711882146,
        "timestamp": "2025-12-26T21:25:51.736528+00:00",
        "meta_object_name": "STARLINK-36140",
        "meta_object_id": "2025-294E",
        "meta_epoch": "2025-12-26T14:00:04.000032",
        "meta_mean_motion": 15.65455074,
        "meta_eccentricity": 0.00012463,
        "meta_inclination": 42.9993,
        "meta_ra_of_asc_node": 97.6818,
        "meta_arg_of_pericenter": 276.2734,
        "meta_mean_anomaly": 344.7204,
        "meta_ephemeris_type": 0,
        "meta_classification_type": "U",
        "meta_norad_cat_id": 67034,
        "meta_element_set_no": 999,
        "meta_rev_at_epoch": 233,
        "meta_bstar": -0.02132614,
        "meta_mean_motion_dot": -0.01938291,
        "meta_mean_motion_ddot": 0,
        "tle_line1": "1 67034U 25294E   25360.58337963 -.01938291  00000+0 -21326-1 0  9991",
        "tle_line2": "2 67034  42.9993  97.6818 0001246 276.2734 344.7204 15.65455074  2335"
      },
      "geometry": {
        "type": "Point",
        "coordinates": [
          -63.632800675260434,
          -18.101108717466406
        ]
      }
    },
    {
      "type": "Feature",
      "properties": {
        "norad_id": 67035,
        "name": "STARLINK-36085",
        "group": "last-30-days",
        "lat": -20.729393298675785,
        "lon": -60.216010724260514,
        "alt_km": 377.5460489187599,
        "timestamp": "2025-12-26T21:25:51.736538+00:00",
        "meta_object_name": "STARLINK-36085",
        "meta_object_id": "2025-294F",
        "meta_epoch": "2025-12-26T14:00:04.000032",
        "meta_mean_motion": 15.65427784,
        "meta_eccentricity": 0.00012401,
        "meta_inclination": 42.9993,
        "meta_ra_of_asc_node": 97.6711,
        "meta_arg_of_pericenter": 274.7015,
        "meta_mean_anomaly": 350.4923,
        "meta_ephemeris_type": 0,
        "meta_classification_type": "U",
        "meta_norad_cat_id": 67035,
        "meta_element_set_no": 999,
        "meta_rev_at_epoch": 233,
        "meta_bstar": -0.021394367,
        "meta_mean_motion_dot": -0.01941862,
        "meta_mean_motion_ddot": 0,
        "tle_line1": "1 67035U 25294F   25360.58337963 -.01941862  00000+0 -21394-1 0  9995",
        "tle_line2": "2 67035  42.9993  97.6711 0001240 274.7015 350.4923 15.65427784  2336"
      },
      "geometry": {
        "type": "Point",
        "coordinates": [
          -60.216010724260514,
          -20.729393298675785
        ]
      }
    },
    {
      "type": "Feature",
      "properties": {
        "norad_id": 67036,
        "name": "STARLINK-36125",
        "group": "last-30-days",
        "lat": -19.421903800743614,
        "lon": -61.94001523731721,
        "alt_km": 377.4430934984239,
        "timestamp": "2025-12-26T21:25:51.736548+00:00",
        "meta_object_name": "STARLINK-36125",
        "meta_object_id": "2025-294G",
        "meta_epoch": "2025-12-26T14:00:04.000032",
        "meta_mean_motion": 15.65440711,
        "meta_eccentricity": 0.00013179,
        "meta_inclination": 42.9993,
        "meta_ra_of_asc_node": 97.6765,
        "meta_arg_of_pericenter": 276.3308,
        "meta_mean_anomaly": 346.7635,
        "meta_ephemeris_type": 0,
        "meta_classification_type": "U",
        "meta_norad_cat_id": 67036,
        "meta_element_set_no": 999,
        "meta_rev_at_epoch": 252,
        "meta_bstar": -0.021390036,
        "meta_mean_motion_dot": -0.01942469,
        "meta_mean_motion_ddot": 0,
        "tle_line1": "1 67036U 25294G   25360.58337963 -.01942469  00000+0 -21390-1 0  9996",
        "tle_line2": "2 67036  42.9993  97.6765 0001317 276.3308 346.7635 15.65440711  2528"
      },
      "geometry": {
        "type": "Point",
        "coordinates": [
          -61.94001523731721,
          -19.421903800743614
        ]
      }
    },
    {
      "type": "Feature",
      "properties": {
        "norad_id": 67037,
        "name": "STARLINK-35732",
        "group": "last-30-days",
        "lat": -22.052716265806726,
        "lon": -58.41591769790383,
        "alt_km": 377.7108529002544,
        "timestamp": "2025-12-26T21:25:51.736560+00:00",
        "meta_object_name": "STARLINK-35732",
        "meta_object_id": "2025-294H",
        "meta_epoch": "2025-12-26T14:00:04.000032",
        "meta_mean_motion": 15.65407655,
        "meta_eccentricity": 0.0001293,
        "meta_inclination": 42.9995,
        "meta_ra_of_asc_node": 97.6657,
        "meta_arg_of_pericenter": 277.4052,
        "meta_mean_anomaly": 349.9522,
        "meta_ephemeris_type": 0,
        "meta_classification_type": "U",
        "meta_norad_cat_id": 67037,
        "meta_element_set_no": 999,
        "meta_rev_at_epoch": 244,
        "meta_bstar": -0.021393579,
        "meta_mean_motion_dot": -0.01940441,
        "meta_mean_motion_ddot": 0,
        "tle_line1": "1 67037U 25294H   25360.58337963 -.01940441  00000+0 -21394-1 0  9999",
        "tle_line2": "2 67037  42.9995  97.6657 0001293 277.4052 349.9522 15.65407655  2443"
      },
      "geometry": {
        "type": "Point",
        "coordinates": [
          -58.41591769790383,
          -22.052716265806726
        ]
      }
    },
    {
      "type": "Feature",
      "properties": {
        "norad_id": 67038,
        "name": "STARLINK-35775",
        "group": "last-30-days",
        "lat": -23.277470051018597,
        "lon": -56.69405821357366,
        "alt_km": 377.7916432567763,
        "timestamp": "2025-12-26T21:25:51.736573+00:00",
        "meta_object_name": "STARLINK-35775",
        "meta_object_id": "2025-294J",
        "meta_epoch": "2025-12-26T14:00:04.000032",
        "meta_mean_motion": 15.65399142,
        "meta_eccentricity": 0.00013304,
        "meta_inclination": 42.9994,
        "meta_ra_of_asc_node": 97.6605,
        "meta_arg_of_pericenter": 277.3479,
        "meta_mean_anomaly": 352.0315,
        "meta_ephemeris_type": 0,
        "meta_classification_type": "U",
        "meta_norad_cat_id": 67038,
        "meta_element_set_no": 999,
        "meta_rev_at_epoch": 244,
        "meta_bstar": -0.02142621,
        "meta_mean_motion_dot": -0.01942488,
        "meta_mean_motion_ddot": 0,
        "tle_line1": "1 67038U 25294J   25360.58337963 -.01942488  00000+0 -21426-1 0  9999",
        "tle_line2": "2 67038  42.9994  97.6605 0001330 277.3479 352.0315 15.65399142  2446"
      },
      "geometry": {
        "type": "Point",
        "coordinates": [
          -56.69405821357366,
          -23.277470051018597
        ]
      }
    }
  ]
}